{"type":"FeatureCollection","features":[{"type":"Feature","properties":{},"geometry":{"type":"MultiPolygon","coordinates":[[[[-109.453725,-27.187758],[-109.220041,-27.105239],[-109.379628,-27.059503],[-109.453725,-27.187758]]],[[[-105.470937,-26.457696],[-105.459543,-26.464776],[-105.46349,-26.456964],[-105.470937,-26.457696]]],[[[-92.011586,1.658637],[-91.999827,1.65119],[-92.006093,1.664374],[-92.011586,1.658637]]],[[[-91.825347,1.382717],[-91.817738,1.368069],[-91.814565,1.384711],[-91.825347,1.382717]]],[[[-91.822011,1.394477],[-91.820465,1.391343],[-91.817535,1.394761],[-91.822011,1.394477]]],[[[-91.671376,-0.29754],[-91.606516,-0.456313],[-91.401112,-0.452895],[-91.467397,-0.250421],[-91.671376,-0.29754]]],[[[-91.606516,-0.007257],[-91.423329,-0.028578],[-91.086781,-0.582452],[-91.465891,-0.807875],[-91.435862,-0.997491],[-90.9287,-0.97031],[-90.792592,-0.738946],[-91.209299,-0.010675],[-91.33967,0.153795],[-91.606516,-0.007257]]],[[[-90.874135,-0.271254],[-90.551503,-0.292739],[-90.777252,-0.147719],[-90.874135,-0.271254]]],[[[-90.805247,0.571601],[-90.744496,0.585395],[-90.79776,0.65351],[-90.805247,0.571601]]],[[[-90.546254,-0.668878],[-90.337066,-0.776951],[-90.180531,-0.548517],[-90.460561,-0.513849],[-90.546254,-0.668878]]],[[[-90.544545,0.310858],[-90.407948,0.310858],[-90.483062,0.365465],[-90.544545,0.310858]]],[[[-90.524037,-1.305922],[-90.366363,-1.271905],[-90.471913,-1.216729],[-90.524037,-1.305922]]],[[[-89.756907,-1.36061],[-89.613271,-1.391697],[-89.661285,-1.340102],[-89.756907,-1.36061]]],[[[-89.631418,-0.916681],[-89.434722,-0.929295],[-89.257192,-0.681573],[-89.631418,-0.916681]]],[[[-81.723704,12.511542],[-81.704742,12.504462],[-81.691029,12.591254],[-81.723704,12.511542]]],[[[-81.616322,3.963813],[-81.580312,3.97602],[-81.582265,3.991523],[-81.616322,3.963813]]],[[[-81.386138,13.341457],[-81.365346,13.323879],[-81.351389,13.366197],[-81.386138,13.341457]]],[[[-81.337558,-4.678304],[-81.063355,-5.022043],[-81.198476,-5.208103],[-80.856212,-5.650462],[-80.939931,-5.850844],[-81.150216,-5.883073],[-81.130811,-6.034561],[-80.004547,-6.740899],[-79.465942,-7.715929],[-78.98574,-8.217421],[-78.182335,-10.110846],[-77.670539,-10.92752],[-77.647257,-11.292316],[-77.210927,-11.646417],[-77.174916,-12.071873],[-76.790886,-12.381047],[-76.221102,-13.357556],[-76.253985,-13.850868],[-76.39396,-13.90802],[-75.930653,-14.649347],[-75.048695,-15.460707],[-71.514516,-17.284601],[-71.384429,-17.697849],[-70.303561,-18.445439],[-70.12328,-19.999933],[-70.213844,-20.811577],[-70.058695,-21.433377],[-70.291575,-22.901951],[-70.600123,-23.244225],[-70.631612,-23.517039],[-70.390736,-23.576918],[-70.582834,-24.524835],[-70.444814,-25.344903],[-70.739985,-25.829323],[-70.629954,-26.340977],[-70.95995,-27.161391],[-70.912424,-27.62184],[-71.521962,-28.940118],[-71.282582,-29.880141],[-71.398793,-30.17669],[-71.637766,-30.241469],[-71.71345,-30.614923],[-71.448313,-32.665704],[-71.761871,-33.101983],[-71.624664,-33.541436],[-72.018544,-34.140802],[-72.21349,-35.081313],[-72.646596,-35.566583],[-72.583567,-35.770603],[-72.80016,-35.978123],[-72.988026,-36.702569],[-73.118642,-36.597101],[-73.207428,-36.775323],[-73.209055,-37.160252],[-73.607574,-37.15545],[-73.680409,-37.347833],[-73.224477,-39.41725],[-73.378774,-39.900486],[-73.711171,-39.968683],[-73.728498,-40.54418],[-73.940585,-41.049964],[-73.798166,-41.565688],[-73.494862,-41.510431],[-73.759946,-41.748841],[-73.515045,-41.803643],[-73.141713,-41.754815],[-72.957265,-41.483575],[-72.426178,-41.663995],[-72.30309,-41.380792],[-72.30309,-41.648207],[-72.88858,-41.910821],[-72.464345,-41.97617],[-72.419789,-42.43963],[-72.594553,-42.182061],[-72.843739,-42.278253],[-72.539418,-42.558282],[-72.840321,-42.524835],[-72.734486,-43.079685],[-72.864858,-43.018731],[-73.084584,-43.316339],[-72.905832,-43.60768],[-73.055247,-43.71559],[-72.847157,-43.679457],[-72.824615,-43.807875],[-73.012685,-43.772149],[-73.116119,-44.085707],[-73.290028,-44.152439],[-72.721913,-44.501397],[-72.591135,-44.340753],[-72.597971,-44.505304],[-72.727651,-44.758559],[-73.397776,-44.988214],[-73.304433,-45.144789],[-73.448069,-45.279474],[-72.830637,-45.418064],[-73.22643,-45.300877],[-73.510854,-45.451755],[-73.591664,-45.780206],[-73.18578,-45.66253],[-73.660553,-45.975681],[-73.687856,-46.322035],[-73.344594,-46.026544],[-73.741851,-46.533787],[-73.989166,-46.559747],[-73.773061,-46.320896],[-73.881825,-46.141778],[-74.019276,-46.20436],[-73.844879,-46.341974],[-74.489898,-46.189386],[-74.021311,-46.148207],[-74.043528,-45.978774],[-74.167063,-46.136407],[-74.103139,-45.836847],[-74.461822,-45.815037],[-74.464711,-46.022149],[-74.647328,-45.816176],[-74.777211,-46.212172],[-75.090688,-46.216078],[-75.029775,-46.341974],[-75.201731,-46.300958],[-75.711415,-46.744399],[-75.410553,-46.931573],[-75.422475,-46.713962],[-75.661041,-46.767185],[-74.934193,-46.437595],[-75.083363,-46.640883],[-75.0065,-46.753513],[-74.479156,-46.902276],[-74.673492,-46.849054],[-74.477651,-46.772393],[-74.591624,-46.725518],[-74.126088,-46.828546],[-74.153228,-46.967218],[-73.941274,-47.027927],[-73.9735,-47.254978],[-74.324696,-47.218927],[-74.528554,-47.431736],[-74.043528,-47.60947],[-74.303578,-47.678318],[-74.205068,-47.756606],[-74.556711,-47.550063],[-74.735585,-47.718683],[-73.923695,-47.842706],[-73.721425,-47.527439],[-73.619008,-47.863865],[-73.227854,-48.004083],[-73.653147,-47.898045],[-73.481801,-48.123305],[-73.281809,-48.079278],[-73.556264,-48.24684],[-73.769846,-48.027765],[-74.330922,-48.000421],[-74.205637,-48.231052],[-74.415395,-47.983657],[-74.632571,-48.034924],[-74.468658,-48.027765],[-74.27009,-48.335626],[-73.89269,-48.41131],[-74.028554,-48.448012],[-73.993479,-48.597263],[-74.197133,-48.473321],[-74.392161,-48.599054],[-74.0572,-48.74033],[-74.371897,-48.719171],[-74.468658,-49.031671],[-74.42276,-49.384698],[-74.241119,-49.527927],[-74.057485,-49.012465],[-73.821848,-49.04225],[-74.043528,-49.08294],[-73.844879,-49.349786],[-74.074452,-49.261651],[-74.123525,-49.422621],[-73.711985,-49.765558],[-74.078521,-49.536879],[-74.326772,-49.677179],[-74.071441,-49.741469],[-74.348256,-49.792087],[-74.08727,-49.959893],[-73.906361,-49.856866],[-74.00768,-49.991388],[-73.885894,-50.076593],[-74.364858,-49.951104],[-74.193715,-50.186456],[-73.8579,-50.289483],[-74.194407,-50.259698],[-74.347646,-50.086114],[-74.694651,-50.183038],[-74.43932,-50.35711],[-74.282704,-50.264907],[-74.252553,-50.440525],[-74.016225,-50.363946],[-74.128896,-50.422947],[-73.879709,-50.542739],[-74.297353,-50.480645],[-74.042714,-50.822035],[-73.56371,-50.404962],[-73.725087,-50.559503],[-73.474355,-50.672459],[-73.772939,-50.670668],[-73.803334,-50.960545],[-74.256418,-50.939386],[-74.071441,-50.953709],[-74.129506,-51.187677],[-73.694081,-51.139255],[-73.682729,-51.275974],[-73.782826,-51.234796],[-73.604482,-51.611423],[-73.88036,-51.367934],[-73.899526,-51.625177],[-73.714589,-51.638849],[-73.812001,-51.688572],[-73.699452,-51.785252],[-73.460683,-51.6867],[-73.589182,-51.749607],[-73.39981,-52.01572],[-73.645579,-51.848728],[-73.316233,-52.166111],[-73.38622,-51.65252],[-73.223704,-52.091485],[-72.919423,-51.858575],[-73.207428,-51.879083],[-72.994537,-51.789727],[-73.280019,-51.606215],[-72.72411,-51.838149],[-72.54955,-51.741306],[-73.260365,-51.471124],[-73.077138,-51.419692],[-72.466949,-51.789727],[-72.468984,-51.929295],[-72.669667,-51.961033],[-72.466949,-52.204278],[-72.637563,-52.397638],[-72.522206,-52.448337],[-72.930531,-52.448175],[-72.535878,-52.221775],[-72.802805,-51.937433],[-72.947377,-52.049737],[-72.883697,-52.198337],[-72.754872,-52.056817],[-72.866444,-52.256768],[-73.079254,-52.237074],[-72.997792,-52.064874],[-73.303049,-52.221775],[-73.735015,-52.029962],[-73.580556,-52.208429],[-73.666168,-52.424005],[-73.494862,-52.475518],[-73.699534,-52.714532],[-73.393625,-52.544122],[-73.26891,-52.673598],[-73.194976,-52.429864],[-72.905832,-52.496026],[-73.091624,-52.493829],[-73.003977,-52.558282],[-73.30663,-52.715427],[-73.233062,-52.790623],[-73.56371,-52.797052],[-73.213857,-52.887791],[-73.455963,-52.986505],[-73.198476,-53.104913],[-72.979563,-53.054783],[-73.015614,-52.841729],[-72.673899,-52.65252],[-72.988352,-52.704278],[-72.858022,-52.502211],[-72.389638,-52.507582],[-72.549143,-52.591567],[-72.41926,-52.653009],[-72.309926,-52.516534],[-71.571611,-52.561278],[-71.478103,-52.646138],[-72.160874,-52.652118],[-72.431264,-52.856622],[-72.714833,-52.869399],[-72.703481,-52.707696],[-72.960357,-52.824965],[-72.933746,-53.10475],[-72.652577,-53.153416],[-72.795969,-53.173272],[-72.719553,-53.292576],[-73.303049,-53.153416],[-72.364573,-53.536879],[-72.645131,-53.317804],[-72.191396,-53.180597],[-72.56314,-53.078871],[-72.021962,-53.125421],[-71.398793,-52.728204],[-71.118764,-52.919636],[-71.742421,-53.223403],[-71.814198,-53.520685],[-72.007965,-53.554295],[-71.789174,-53.441339],[-71.855621,-53.225356],[-72.092519,-53.422621],[-72.241689,-53.434503],[-72.080434,-53.329034],[-72.282297,-53.242771],[-72.453277,-53.407322],[-72.103871,-53.68906],[-71.228749,-53.874688],[-70.973622,-53.756036],[-70.889215,-52.913626],[-70.73884,-52.783868],[-70.863759,-52.721368],[-69.672351,-52.530857],[-69.234708,-52.203143],[-68.362472,-52.339072],[-68.973511,-51.619952],[-69.616811,-51.625177],[-68.962554,-51.560154],[-69.167778,-50.978225],[-69.410715,-51.083917],[-69.1368,-50.903481],[-68.876429,-50.330572],[-68.349873,-50.14881],[-68.58347,-49.970337],[-69.013499,-50.007745],[-68.577272,-49.927616],[-68.739735,-49.727716],[-68.341868,-50.117608],[-67.894927,-49.996875],[-67.607655,-49.265069],[-67.830881,-49.379571],[-67.556549,-49.015817],[-65.761952,-47.948552],[-65.901824,-47.76995],[-66.38915,-47.863865],[-65.845626,-47.742206],[-65.744902,-47.204164],[-66.786448,-47.006606],[-67.42322,-46.567419],[-67.62442,-46.13006],[-66.929266,-45.256534],[-65.5214,-44.931898],[-65.7271,-44.809605],[-65.216885,-44.36641],[-65.3308,-43.663344],[-64.943918,-43.239435],[-64.302113,-42.98089],[-64.997141,-42.784845],[-64.946034,-42.654229],[-64.437734,-42.506931],[-64.1079,-42.883722],[-63.620269,-42.751235],[-63.597971,-42.299981],[-63.768648,-42.077723],[-64.339711,-42.2374],[-64.06843,-42.269627],[-64.103586,-42.42783],[-64.445058,-42.44671],[-64.602284,-42.422052],[-64.480865,-42.254653],[-65.004994,-42.093194],[-65.131703,-40.84238],[-64.796213,-40.723321],[-64.911204,-40.823826],[-63.621816,-41.160903],[-63.053578,-41.147149],[-62.337799,-40.872735],[-62.181549,-40.626642],[-62.329742,-40.669122],[-62.26415,-40.551528],[-62.490061,-40.307875],[-62.305043,-39.81113],[-62.119456,-39.838311],[-62.050608,-39.474705],[-62.283925,-39.310724],[-62.023101,-39.377048],[-62.325592,-39.254653],[-62.37975,-38.798435],[-61.143381,-39.001072],[-58.330963,-38.492771],[-57.55842,-38.120864],[-57.487416,-37.832208],[-56.686431,-36.927667],[-56.74059,-36.316583],[-56.939198,-36.384861],[-57.370595,-35.976983],[-57.128144,-35.441321],[-57.201577,-35.310154],[-58.315031,-34.657195],[-58.570424,-34.288181],[-58.37857,-34.188246],[-58.549224,-33.705336],[-58.430165,-33.102634],[-58.146799,-33.049981],[-58.200429,-32.444594],[-58.048492,-32.911716],[-58.366933,-33.153741],[-58.434641,-33.784926],[-57.855354,-34.470967],[-57.151964,-34.450932],[-56.156088,-34.941188],[-55.693448,-34.764741],[-54.958608,-34.973403],[-54.306467,-34.707696],[-54.328603,-34.561782],[-54.145904,-34.667576],[-53.764882,-34.390395],[-53.450917,-33.801528],[-52.621693,-33.101983],[-52.091176,-32.166111],[-52.08141,-32.031996],[-52.258616,-32.053643],[-52.13386,-31.930841],[-52.218617,-31.740655],[-52.083323,-31.558689],[-52.007924,-31.646173],[-51.963531,-31.332289],[-51.443023,-31.080987],[-51.377105,-30.642267],[-51.269683,-30.781834],[-51.250478,-30.462335],[-51.090647,-30.351983],[-51.326975,-30.224542],[-51.283518,-30.00742],[-50.936391,-30.431573],[-50.614817,-30.186212],[-50.565012,-30.450128],[-50.725657,-30.363051],[-50.692616,-30.726495],[-50.978424,-30.893324],[-50.975942,-31.130955],[-51.161855,-31.077732],[-51.244985,-31.464044],[-51.836334,-31.854913],[-52.08727,-31.827813],[-52.077382,-32.16725],[-50.721425,-31.044529],[-49.810658,-29.443129],[-48.756093,-28.528416],[-48.874013,-28.346287],[-48.76122,-28.4874],[-48.635894,-28.230157],[-48.619985,-27.246677],[-48.476145,-27.153985],[-48.607167,-27.104425],[-48.6079,-26.4367],[-48.798248,-26.304864],[-48.796457,-26.068455],[-48.733795,-26.224705],[-48.592519,-26.183852],[-48.563466,-25.865818],[-48.769439,-25.867364],[-48.541005,-25.845473],[-48.361195,-25.570977],[-48.710846,-25.496352],[-48.743031,-25.352146],[-48.472727,-25.475681],[-48.455678,-25.248468],[-48.325307,-25.228611],[-48.332753,-25.358331],[-48.127309,-25.279962],[-48.209055,-25.457615],[-47.887074,-25.057306],[-48.051584,-25.036798],[-46.376047,-24.024509],[-46.385406,-23.873468],[-46.287668,-24.021173],[-45.864369,-23.756443],[-45.426666,-23.830743],[-45.412994,-23.617852],[-44.50121,-23.296482],[-44.70051,-23.10768],[-44.411366,-22.937433],[-44.186391,-23.049005],[-43.850168,-22.892267],[-43.603749,-23.007745],[-44.003733,-23.091078],[-43.560374,-23.067478],[-43.170766,-22.969822],[-43.270172,-22.747003],[-43.075551,-22.665704],[-43.031402,-22.974298],[-42.013539,-22.981703],[-41.869781,-22.75213],[-41.966298,-22.535414],[-40.972646,-21.986749],[-41.05724,-21.483819],[-40.758463,-20.864194],[-40.348744,-20.500095],[-40.259511,-20.321466],[-40.369293,-20.23268],[-40.232777,-20.266778],[-40.026845,-19.764418],[-39.786204,-19.601983],[-39.659413,-18.273614],[-39.137115,-17.67962],[-39.208608,-17.162205],[-38.861684,-15.854262],[-39.067128,-14.674981],[-38.929921,-13.897638],[-39.039784,-14.175388],[-38.994456,-13.863458],[-39.148752,-13.736912],[-38.97997,-13.83587],[-39.01183,-13.497003],[-39.115549,-13.599379],[-38.724477,-12.873224],[-38.923695,-12.736586],[-38.861684,-12.654067],[-38.80663,-12.835138],[-38.690989,-12.571466],[-38.508901,-12.722914],[-38.532704,-13.016534],[-38.320424,-12.935235],[-37.654652,-12.049737],[-37.360829,-11.454848],[-37.491851,-11.51629],[-37.470082,-11.358657],[-37.299387,-11.194757],[-37.330068,-11.420668],[-37.149159,-11.187433],[-37.275136,-11.022719],[-37.138295,-11.125909],[-36.903066,-10.772882],[-36.40807,-10.50213],[-35.810618,-9.744806],[-35.963043,-9.610772],[-35.696156,-9.672947],[-35.305084,-9.193048],[-34.811635,-7.93255],[-34.928944,-7.555759],[-34.804799,-7.514093],[-34.825795,-6.98447],[-34.914662,-7.130548],[-34.982289,-6.391371],[-35.420522,-5.211521],[-35.997182,-5.04754],[-36.544423,-5.127618],[-37.182932,-4.910903],[-38.477406,-3.697442],[-39.985707,-2.848403],[-41.256907,-2.875177],[-41.244537,-3.015232],[-41.838565,-2.72948],[-42.23941,-2.834161],[-43.426298,-2.33785],[-43.45287,-2.552911],[-43.537343,-2.435968],[-43.923248,-2.546808],[-44.200185,-2.86891],[-44.186513,-2.759047],[-44.3485,-2.810235],[-44.034413,-2.415216],[-44.292633,-2.481052],[-44.432973,-2.950291],[-44.79601,-3.300226],[-44.540395,-2.538263],[-44.655995,-2.593194],[-44.363596,-2.333917],[-44.461659,-2.144627],[-44.652699,-2.429457],[-44.665639,-2.270929],[-44.824045,-2.279229],[-44.494374,-2.045831],[-44.617299,-2.038995],[-44.488149,-1.987481],[-44.598012,-1.744806],[-44.810374,-1.813165],[-44.707875,-1.717462],[-44.821929,-1.75921],[-44.837026,-1.566095],[-44.933827,-1.65545],[-44.868031,-1.421319],[-44.967356,-1.594008],[-45.163197,-1.482843],[-45.323638,-1.744806],[-45.326161,-1.312921],[-45.460805,-1.546157],[-45.415679,-1.287693],[-45.675535,-1.366316],[-45.721588,-1.134942],[-45.810902,-1.32643],[-45.867487,-1.063471],[-45.948069,-1.251397],[-45.979454,-1.055084],[-46.050445,-1.210382],[-46.101674,-1.073337],[-46.262115,-1.183201],[-46.200307,-0.907647],[-46.248443,-1.093683],[-46.475006,-1.045343],[-46.427629,-0.86855],[-46.749379,-1.01865],[-46.598541,-0.86712],[-46.749379,-0.942966],[-46.819203,-0.711684],[-46.947377,-0.9013],[-46.969106,-0.695896],[-47.0572,-0.86712],[-47.077545,-0.665704],[-47.13976,-0.798923],[-47.294016,-0.592869],[-47.461903,-0.592869],[-47.393056,-0.812595],[-47.584514,-0.578247],[-47.728668,-0.756524],[-47.809071,-0.565167],[-47.962148,-0.781834],[-48.037913,-0.661716],[-48.334584,-1.313653],[-48.482753,-1.2813],[-48.496571,-1.461358],[-48.325307,-1.470473],[-48.4829,-1.511407],[-48.428334,-1.662286],[-48.656946,-1.38338],[-49.033269,-1.846568],[-48.856369,-1.559031],[-48.965589,-1.599719],[-49.663686,-2.677667],[-49.422027,-1.778985],[-49.654775,-1.895115],[-49.592763,-2.011651],[-49.846588,-1.901788],[-49.812489,-2.108005],[-49.976918,-1.826104],[-50.415761,-2.073175],[-50.610581,-1.814203],[-50.844215,-1.955301],[-50.654693,-1.73797],[-50.95641,-1.128513],[-50.839589,-0.912774],[-52.203969,-1.690199],[-52.279124,-1.518243],[-52.708119,-1.60003],[-51.93456,-1.339532],[-51.326975,-0.079522],[-50.790639,0.169501],[-49.887563,1.174872],[-50.149741,1.221209],[-49.883026,1.307714],[-49.950597,1.721326],[-50.466542,1.815416],[-50.619555,2.105238],[-50.779693,2.07095],[-50.67927,2.171698],[-51.016779,3.035572],[-51.079905,3.88227],[-51.176137,3.648342],[-51.18693,4.078849],[-51.38923,4.358902],[-51.560048,4.369371],[-51.436838,3.929511],[-51.585347,4.233818],[-52.355327,3.151592],[-52.590403,2.504706],[-52.917153,2.195733],[-53.764801,2.368694],[-54.111395,2.114291],[-54.492664,2.222708],[-54.615292,2.326267],[-54.170203,2.853057],[-54.211182,3.127407],[-53.988819,3.610995],[-54.353861,4.041718],[-54.486721,4.902958],[-54.061106,5.512885],[-54.020462,5.83025],[-55.844382,5.975962],[-55.897694,5.676703],[-55.936006,5.804661],[-56.956537,6.011574],[-57.24767,5.484931],[-57.18666,6.121188],[-57.528913,6.265709],[-58.005675,6.791758],[-58.398427,6.883368],[-58.679596,6.376207],[-58.471588,7.345404],[-59.104807,8.013617],[-60.197825,8.623847],[-60.975575,8.575995],[-61.071889,8.403306],[-61.026601,8.500922],[-61.284047,8.397203],[-61.598744,8.555487],[-61.209462,8.609036],[-60.959137,9.182522],[-61.085439,9.102444],[-60.78539,9.313544],[-60.862294,9.456122],[-61.636735,9.898771],[-61.592519,9.781968],[-61.828172,9.827158],[-61.743316,9.596381],[-62.196476,10.019678],[-62.027333,9.874416],[-62.19518,9.932807],[-62.215688,9.637926],[-62.221995,9.938381],[-62.318715,9.706244],[-62.579945,10.224433],[-62.801096,9.995998],[-63.017649,10.103461],[-62.626576,10.130805],[-62.764475,10.395331],[-63.003977,10.275377],[-62.995188,10.407864],[-62.831125,10.406806],[-62.857004,10.531562],[-63.010813,10.453559],[-62.923329,10.530829],[-62.33495,10.530219],[-61.845774,10.740953],[-64.270741,10.672675],[-64.233876,10.515041],[-63.655019,10.494534],[-64.188547,10.477607],[-65.083974,10.047512],[-65.923004,10.282213],[-66.046539,10.576483],[-66.275868,10.652167],[-68.129547,10.487738],[-68.40331,11.200263],[-68.863189,11.452867],[-69.623606,11.46776],[-70.01773,12.19892],[-70.301991,11.85814],[-70.211781,11.609076],[-69.816029,11.693671],[-69.794911,11.436713],[-70.161598,11.568545],[-70.036529,11.440904],[-71.501129,10.960028],[-71.445912,10.79621],[-71.583119,10.809231],[-71.072418,9.857856],[-71.056508,9.344468],[-71.273549,9.135077],[-71.686147,9.061957],[-71.816518,9.233303],[-71.734527,9.384711],[-71.995229,9.459215],[-72.124379,9.826077],[-71.576283,10.721096],[-71.971303,11.554836],[-71.378163,11.75845],[-71.107493,12.074937],[-71.26183,12.341864],[-71.675608,12.468329],[-71.937611,12.166449],[-72.161977,12.242865],[-72.263051,11.885972],[-73.292388,11.294013],[-74.153391,11.343655],[-74.39509,10.749498],[-74.596995,10.867825],[-74.29783,10.991499],[-74.844372,11.10967],[-75.461822,10.631049],[-75.703577,10.134428],[-75.53067,10.240668],[-75.705137,9.700662],[-75.620633,9.452853],[-75.943798,9.440734],[-76.315541,8.94774],[-76.947174,8.545478],[-76.77481,8.416693],[-76.757232,7.92357],[-76.907053,7.929511],[-76.832265,8.136542],[-77.434003,8.62826],[-77.488728,8.473644],[-77.16327,7.939258],[-77.579989,7.528379],[-77.764215,7.705732],[-77.895839,7.235098],[-77.345367,6.566107],[-77.484364,6.188788],[-77.24592,5.734198],[-77.559193,5.503079],[-77.380971,5.403022],[-77.258046,4.704088],[-77.387196,4.347235],[-77.236318,4.265326],[-77.43517,4.029364],[-77.346181,3.929511],[-77.189198,4.067328],[-77.253163,3.840806],[-77.031565,3.915839],[-77.321767,3.547838],[-77.318918,3.319973],[-77.457387,3.356147],[-77.721791,2.982001],[-77.6197,2.931586],[-77.812367,2.764472],[-77.760406,2.59162],[-78.096105,2.651451],[-78.132476,2.492743],[-78.346018,2.647986],[-78.574086,2.433173],[-78.703159,2.189805],[-78.57123,1.782207],[-78.846052,1.821585],[-79.021512,1.63831],[-78.812856,1.277289],[-79.614858,0.99608],[-79.614858,0.845282],[-79.655751,1.003607],[-80.097279,0.780341],[-80.051349,0.089992],[-80.496464,-0.381374],[-80.299007,-0.662229],[-80.448969,-0.60606],[-80.569883,-0.912243],[-80.909611,-1.044915],[-80.744256,-1.343773],[-80.85558,-1.588311],[-80.737447,-2.043497],[-81.01301,-2.166925],[-80.255483,-2.730239],[-80.012685,-2.32643],[-79.929677,-2.484145],[-80.063588,-2.577244],[-79.896108,-2.54339],[-79.765614,-2.004978],[-79.868642,-2.160903],[-79.72643,-2.593845],[-79.968007,-3.214614],[-80.306874,-3.320733],[-81.264027,-4.252374],[-81.337558,-4.678304]],[[-73.588036,-49.540541],[-73.457863,-49.307687],[-73.098247,-49.272754],[-73.059745,-49.554971],[-73.19675,-49.682423],[-73.465098,-49.759959],[-73.588036,-49.540541]],[[-57.642466,-30.193092],[-57.633971,-30.183583],[-57.602793,-30.190517],[-57.642466,-30.193092]]],[[[-80.87538,-6.433053],[-80.839584,-6.475246],[-80.853135,-6.374988],[-80.87538,-6.433053]]],[[[-80.777333,-33.73447],[-80.704701,-33.766778],[-80.740834,-33.685154],[-80.777333,-33.73447]]],[[[-80.271854,-2.996405],[-80.131033,-3.020921],[-79.902821,-2.717462],[-80.210683,-2.724867],[-80.271854,-2.996405]]],[[[-80.107777,-26.274998],[-80.090728,-26.271417],[-80.095693,-26.266046],[-80.107777,-26.274998]]],[[[-80.090891,13.577094],[-80.089426,13.57685],[-80.089345,13.577867],[-80.090891,13.577094]]],[[[-79.909413,-26.358168],[-79.890736,-26.351739],[-79.901763,-26.347426],[-79.909413,-26.358168]]],[[[-79.881801,-2.62694],[-79.772571,-2.541987],[-79.81964,-2.485911],[-79.881801,-2.62694]]],[[[-78.995432,1.286811],[-78.912506,1.245266],[-78.901682,1.374172],[-78.995432,1.286811]]],[[[-78.991689,-33.656915],[-78.757639,-33.643243],[-78.884877,-33.575616],[-78.991689,-33.656915]]],[[[-78.22029,2.943868],[-78.182026,2.942935],[-78.16427,3.001596],[-78.22029,2.943868]]],[[[-78.216696,2.67015],[-78.107289,2.512519],[-78.145086,2.673748],[-78.216696,2.67015]]],[[[-77.920237,2.679755],[-77.888051,2.593817],[-77.785024,2.593817],[-77.920237,2.679755]]],[[[-77.885121,2.719631],[-77.759104,2.603095],[-77.847076,2.724107],[-77.885121,2.719631]]],[[[-77.54955,4.204779],[-77.271718,4.25849],[-77.428131,4.34101],[-77.54955,4.204779]]],[[[-77.25366,-12.063488],[-77.236668,-12.093345],[-77.181541,-12.115912],[-77.25366,-12.063488]]],[[[-76.47025,-13.853856],[-76.436689,-13.833522],[-76.456831,-13.822912],[-76.47025,-13.853856]]],[[[-76.220324,-14.274666],[-76.17566,-14.288375],[-76.195232,-14.263294],[-76.220324,-14.274666]]],[[[-75.675364,-48.583185],[-75.440663,-48.610528],[-75.610178,-48.668064],[-75.506215,-48.694757],[-75.321523,-48.60003],[-75.338938,-48.435479],[-75.622426,-48.445733],[-75.675364,-48.583185]]],[[[-75.661041,-49.205743],[-75.508046,-49.267999],[-75.287424,-49.086602],[-75.394276,-48.998142],[-75.661041,-49.205743]]],[[[-75.658559,-48.932306],[-75.20759,-49.034601],[-75.394154,-48.829034],[-75.658559,-48.932306]]],[[[-75.653635,-48.760837],[-75.286285,-48.695001],[-75.338938,-48.6242],[-75.653635,-48.760837]]],[[[-75.635455,-49.781723],[-75.3662,-49.72031],[-75.180653,-49.905369],[-75.495057,-49.557404],[-75.635455,-49.781723]]],[[[-75.595813,10.347537],[-75.58229,10.319033],[-75.53532,10.350646],[-75.57583,10.377872],[-75.595813,10.347537]]],[[[-75.585317,-48.085707],[-75.433909,-48.198989],[-75.543772,-48.321954],[-75.345774,-48.29518],[-75.537343,-48.415785],[-75.328359,-48.343032],[-75.239613,-48.70143],[-75.082753,-48.613458],[-75.350982,-48.00449],[-75.585317,-48.085707]]],[[[-75.547554,-49.411311],[-75.44042,-49.517811],[-75.470581,-49.403149],[-75.547554,-49.411311]]],[[[-75.514272,-50.656834],[-75.307932,-50.789483],[-75.34557,-50.560724],[-75.097401,-50.497247],[-75.416575,-50.464532],[-75.359364,-50.590509],[-75.514272,-50.656834]]],[[[-75.468617,-49.322442],[-75.009918,-49.898533],[-74.987701,-49.479262],[-74.64623,-49.349786],[-74.886952,-49.534601],[-74.708323,-49.63836],[-74.891957,-49.614435],[-74.728749,-49.843194],[-74.913686,-49.925877],[-74.680531,-49.928399],[-74.856272,-49.991306],[-74.768422,-50.053318],[-74.474233,-49.944513],[-74.430084,-49.657892],[-74.605214,-49.713556],[-74.44579,-49.302341],[-74.543813,-48.70615],[-74.634836,-48.855239],[-74.696645,-48.679864],[-75.057973,-48.816664],[-74.872792,-48.842706],[-74.968984,-48.986586],[-74.823638,-48.950372],[-74.954701,-49.007094],[-74.804514,-49.103936],[-74.893219,-49.364028],[-75.092437,-49.19964],[-75.092437,-49.370294],[-75.323354,-49.263604],[-75.166982,-49.501153],[-75.468617,-49.322442]]],[[[-75.460927,-50.35003],[-75.194895,-50.302504],[-75.323232,-50.400323],[-75.22289,-50.436456],[-74.790842,-50.145603],[-75.071401,-50.186456],[-74.953277,-50.079767],[-75.325266,-50.00156],[-75.146474,-50.24863],[-75.367096,-50.147393],[-75.460927,-50.35003]]],[[[-75.355913,-47.73614],[-75.023682,-47.803325],[-75.091638,-47.680492],[-75.355913,-47.73614]]],[[[-75.342252,-46.701737],[-75.121802,-46.747034],[-75.173992,-46.677964],[-75.342252,-46.701737]]],[[[-75.325266,-51.577407],[-75.003529,-51.341892],[-75.219838,-51.305434],[-75.325266,-51.577407]]],[[[-75.309071,-48.801446],[-75.223012,-48.978936],[-75.072825,-48.97031],[-75.309071,-48.801446]]],[[[-75.270619,-48.027765],[-74.727379,-48.105892],[-74.788324,-47.812324],[-75.270619,-48.027765]]],[[[-75.256337,-48.075453],[-75.056752,-48.432712],[-74.841298,-48.359308],[-74.82782,-48.145492],[-75.256337,-48.075453]]],[[[-75.249135,-48.766778],[-75.119252,-48.817153],[-75.064117,-48.643243],[-75.249135,-48.766778]]],[[[-75.235585,-49.144952],[-74.935699,-49.28045],[-74.890452,-49.095473],[-75.126047,-49.021417],[-75.235585,-49.144952]]],[[[-75.200213,-44.816615],[-75.031272,-44.903969],[-75.113179,-44.766518],[-75.200213,-44.816615]]],[[[-75.171581,-50.46215],[-75.044522,-50.475994],[-74.889258,-50.294923],[-75.171581,-50.46215]]],[[[-75.119781,-51.878106],[-75.013051,-51.861993],[-74.982655,-51.721449],[-75.119781,-51.878106]]],[[[-75.113149,-50.721287],[-74.981353,-50.800063],[-74.985422,-50.657159],[-75.113149,-50.721287]]],[[[-75.112945,-45.885675],[-74.85912,-45.998712],[-75.106109,-46.047052],[-74.952138,-46.111423],[-74.713002,-45.821873],[-75.112945,-45.885675]]],[[[-75.071401,-51.98211],[-74.886383,-52.043064],[-74.793446,-51.644301],[-74.92516,-51.636],[-74.831858,-51.837498],[-75.071401,-51.98211]]],[[[-75.054421,-47.689572],[-74.967888,-47.772533],[-74.861375,-47.743876],[-75.054421,-47.689572]]],[[[-75.044057,-48.732843],[-74.824941,-48.65838],[-75.009918,-48.637302],[-75.044057,-48.732843]]],[[[-75.03307,-48.50449],[-74.48526,-48.626153],[-74.73766,-48.125746],[-74.717152,-48.453546],[-75.03307,-48.50449]]],[[[-75.024159,-51.456231],[-74.687164,-51.283298],[-74.594228,-51.399509],[-74.555735,-51.250421],[-74.79308,-51.211196],[-75.024159,-51.456231]]],[[[-75.022694,-51.161879],[-74.860829,-51.136163],[-74.968984,-51.104425],[-75.022694,-51.161879]]],[[[-74.966542,-50.963637],[-74.680979,-51.008233],[-74.725453,-51.105076],[-74.380279,-51.02752],[-74.39977,-50.844415],[-74.660471,-50.727716],[-74.625478,-50.9249],[-74.966542,-50.963637]]],[[[-74.961578,-50.76922],[-74.660471,-50.823907],[-74.804514,-50.666274],[-74.961578,-50.76922]]],[[[-74.913401,-52.219496],[-74.672566,-52.390549],[-74.536096,-52.271905],[-74.913401,-52.219496]]],[[[-74.896352,-52.113051],[-74.598459,-51.837498],[-74.750885,-51.833917],[-74.896352,-52.113051]]],[[[-74.879262,-45.624607],[-74.749867,-45.697686],[-74.798004,-45.614435],[-74.879262,-45.624607]]],[[[-74.827332,-43.571793],[-74.775427,-43.674631],[-74.557486,-43.62741],[-74.827332,-43.571793]]],[[[-74.827056,-44.604425],[-74.747792,-44.665623],[-74.741526,-44.572361],[-74.827056,-44.604425]]],[[[-74.804189,-52.159275],[-74.671946,-52.163018],[-74.601796,-52.06406],[-74.804189,-52.159275]]],[[[-74.785308,-50.489435],[-74.544586,-50.382094],[-74.736724,-50.37184],[-74.785308,-50.489435]]],[[[-74.749867,-52.755548],[-74.318349,-53.097345],[-73.880442,-53.057712],[-73.584218,-53.317804],[-73.09081,-53.355727],[-74.749867,-52.755548]]],[[[-74.735585,-52.084568],[-74.499867,-51.951837],[-74.543813,-51.920668],[-74.735585,-52.084568]]],[[[-74.705637,-45.700942],[-74.595693,-45.745782],[-74.541331,-45.578709],[-74.705637,-45.700942]]],[[[-74.68923,-47.834117],[-74.644016,-47.92311],[-74.520179,-47.838069],[-74.68923,-47.834117]]],[[[-74.68456,-50.531996],[-74.640452,-50.586358],[-74.584096,-50.530938],[-74.68456,-50.531996]]],[[[-74.673492,-50.47381],[-74.420277,-50.528497],[-74.581207,-50.633559],[-74.517079,-50.731622],[-74.186106,-50.833103],[-74.427113,-50.652602],[-74.239003,-50.676202],[-74.383127,-50.455987],[-74.673492,-50.47381]]],[[[-74.669504,-44.67018],[-74.454416,-44.673517],[-74.570139,-44.62005],[-74.669504,-44.67018]]],[[[-74.605214,-51.080255],[-74.389882,-51.169366],[-74.470448,-51.025649],[-74.605214,-51.080255]]],[[[-74.605214,-48.157403],[-74.534413,-48.335626],[-74.372629,-48.253188],[-74.605214,-48.157403]]],[[[-74.571034,-45.539727],[-74.501332,-45.588067],[-74.445668,-45.428155],[-74.571034,-45.539727]]],[[[-74.547719,-44.476658],[-74.223053,-44.46738],[-74.306386,-44.393731],[-74.547719,-44.476658]]],[[[-74.53777,-52.404327],[-74.461883,-52.437593],[-74.476368,-52.309667],[-74.53777,-52.404327]]],[[[-74.52774,-44.743259],[-74.312367,-44.841404],[-74.427113,-44.718194],[-74.52774,-44.743259]]],[[[-74.526357,-45.315525],[-74.310414,-45.389255],[-74.389272,-45.281671],[-74.526357,-45.315525]]],[[[-74.510243,-48.408298],[-74.429026,-48.525811],[-74.306549,-48.489435],[-74.510243,-48.408298]]],[[[-74.509633,-51.714614],[-74.369456,-51.89129],[-74.10497,-51.899591],[-74.509633,-51.714614]]],[[[-74.502838,-47.917901],[-73.808909,-47.887384],[-74.289906,-47.807387],[-74.502838,-47.917901]]],[[[-74.502838,-45.732354],[-74.241811,-45.675958],[-74.273549,-45.495294],[-74.421254,-45.454278],[-74.502838,-45.732354]]],[[[-74.495432,-48.349867],[-74.223297,-48.44492],[-74.314117,-48.280938],[-74.495432,-48.349867]]],[[[-74.492177,-47.098891],[-74.454701,-47.167739],[-74.316396,-47.064874],[-74.492177,-47.098891]]],[[[-74.491572,-52.551811],[-74.349257,-52.622981],[-74.415313,-52.504874],[-74.491572,-52.551811]]],[[[-74.468617,-49.501153],[-74.415395,-49.623793],[-74.287994,-49.548435],[-74.468617,-49.501153]]],[[[-74.420277,-45.23211],[-74.325347,-45.302341],[-74.270863,-45.215916],[-74.420277,-45.23211]]],[[[-74.41686,-52.129002],[-74.145904,-52.19378],[-74.245351,-52.316583],[-74.122548,-52.397719],[-73.935699,-52.324884],[-74.41686,-52.129002]]],[[[-74.41686,-44.264907],[-74.290028,-44.297296],[-74.322011,-44.249444],[-74.41686,-44.264907]]],[[[-74.413808,-44.685968],[-74.269358,-44.805352],[-73.875885,-44.694024],[-74.413808,-44.685968]]],[[[-74.412026,-51.367044],[-74.396488,-51.413082],[-74.29651,-51.395389],[-74.412026,-51.367044]]],[[[-74.407826,-52.051039],[-74.387807,-52.077244],[-74.344553,-52.06406],[-74.407826,-52.051039]]],[[[-74.407216,-43.237888],[-73.847491,-43.423483],[-73.669014,-43.363847],[-73.775746,-43.118097],[-73.502309,-43.128025],[-73.707672,-42.867364],[-73.491933,-42.818617],[-73.824452,-42.514418],[-73.384755,-42.293064],[-73.57844,-41.945489],[-73.502309,-41.84002],[-74.064036,-41.805922],[-74.167363,-42.882514],[-74.407216,-43.237888]]],[[[-74.385569,-44.159601],[-74.258168,-44.17311],[-74.296213,-44.143324],[-74.385569,-44.159601]]],[[[-74.368886,-44.541111],[-74.132883,-44.54697],[-74.193715,-44.492283],[-74.368886,-44.541111]]],[[[-74.363596,-44.997247],[-73.913197,-44.950372],[-74.163726,-44.864679],[-74.363596,-44.997247]]],[[[-74.351959,-50.925714],[-74.262603,-51.241469],[-74.196929,-51.175388],[-74.351959,-50.925714]]],[[[-74.316803,-44.016534],[-74.298329,-44.031915],[-74.207997,-44.019301],[-74.316803,-44.016534]]],[[[-74.284026,-43.417838],[-74.230726,-43.41337],[-74.247419,-43.35253],[-74.284026,-43.417838]]],[[[-74.262929,-51.327895],[-74.119374,-51.447442],[-74.16511,-51.287042],[-74.262929,-51.327895]]],[[[-74.250803,-48.378025],[-74.110992,-48.473565],[-74.054189,-48.455011],[-74.250803,-48.378025]]],[[[-74.250111,-45.109633],[-73.767974,-45.284601],[-73.700795,-45.160577],[-73.889312,-44.991876],[-74.250111,-45.109633]]],[[[-74.243723,-53.30283],[-74.193715,-53.331476],[-74.058095,-53.250258],[-74.243723,-53.30283]]],[[[-74.240631,-51.6985],[-73.928538,-51.7763],[-74.082143,-51.538181],[-74.240631,-51.6985]]],[[[-74.230702,-47.102146],[-74.145904,-47.171157],[-73.97525,-47.047621],[-74.230702,-47.102146]]],[[[-74.18954,-52.616974],[-74.123419,-52.706617],[-73.872182,-52.550063],[-73.982167,-52.632501],[-73.844879,-52.597833],[-73.872182,-52.715102],[-73.677887,-52.473321],[-74.029729,-52.429918],[-73.943999,-52.482788],[-74.18954,-52.616974]]],[[[-74.187489,-44.806329],[-74.039296,-44.853123],[-73.961252,-44.790704],[-74.187489,-44.806329]]],[[[-74.167063,-45.252618],[-74.012278,-45.353611],[-73.781239,-45.324151],[-74.167063,-45.252618]]],[[[-74.167063,-44.430271],[-74.036041,-44.498468],[-74.126454,-44.534275],[-73.947336,-44.543552],[-74.167063,-44.430271]]],[[[-74.167063,-43.861017],[-73.762318,-43.88893],[-73.865102,-43.762628],[-74.167063,-43.861017]]],[[[-74.145009,-45.558038],[-73.816965,-45.474786],[-74.064036,-45.423272],[-74.145009,-45.558038]]],[[[-74.126291,-44.200291],[-74.031402,-44.32586],[-73.893625,-44.239353],[-74.126291,-44.200291]]],[[[-74.114654,-45.599705],[-73.905263,-45.66961],[-74.012522,-45.536554],[-74.114654,-45.599705]]],[[[-74.112416,-51.994561],[-73.694081,-52.242283],[-73.936635,-51.966404],[-74.112416,-51.994561]]],[[[-74.112416,-44.327244],[-73.9405,-44.450616],[-73.926829,-44.354587],[-74.112416,-44.327244]]],[[[-74.102406,-45.788832],[-74.015614,-45.913995],[-73.926829,-45.745375],[-74.102406,-45.788832]]],[[[-74.092885,-52.185235],[-73.749338,-52.35768],[-73.815338,-52.241143],[-74.092885,-52.185235]]],[[[-74.02302,-45.392673],[-73.921742,-45.430434],[-73.824452,-45.395929],[-74.02302,-45.392673]]],[[[-74.016225,-44.142836],[-73.831207,-44.172947],[-73.917633,-44.098403],[-74.016225,-44.142836]]],[[[-73.979358,-51.838544],[-73.713451,-51.996007],[-73.739161,-51.832346],[-73.979358,-51.838544]]],[[[-73.97525,-44.289646],[-73.789052,-44.309503],[-73.813832,-44.265069],[-73.97525,-44.289646]]],[[[-73.954823,-38.322442],[-73.884999,-38.409601],[-73.875315,-38.368422],[-73.954823,-38.322442]]],[[[-73.945709,-45.925063],[-73.694081,-45.888849],[-73.716298,-45.812188],[-73.945709,-45.925063]]],[[[-73.940785,-51.677911],[-73.7954,-51.813897],[-73.789662,-51.73504],[-73.940785,-51.677911]]],[[[-73.940582,-44.802911],[-73.762318,-44.929864],[-73.854482,-44.768731],[-73.940582,-44.802911]]],[[[-73.9405,-46.068129],[-73.775461,-46.199477],[-73.680409,-46.088067],[-73.9405,-46.068129]]],[[[-73.920644,-51.303643],[-73.793691,-51.371026],[-73.754872,-51.297621],[-73.920644,-51.303643]]],[[[-73.911936,-44.419366],[-73.782948,-44.443048],[-73.887685,-44.369236],[-73.911936,-44.419366]]],[[[-73.892323,-53.5263],[-73.687856,-53.523207],[-73.854848,-53.448175],[-73.892323,-53.5263]]],[[[-73.844309,-44.65252],[-73.591542,-44.70672],[-73.699534,-44.536798],[-73.844309,-44.65252]]],[[[-73.826324,-45.985772],[-73.683176,-46.017673],[-73.755523,-45.888849],[-73.826324,-45.985772]]],[[[-73.818267,-45.642511],[-73.629872,-45.737563],[-73.603179,-45.457696],[-73.818267,-45.642511]]],[[[-73.81078,-52.913751],[-73.378774,-52.910333],[-73.611724,-52.82171],[-73.81078,-52.913751]]],[[[-73.803334,-53.434503],[-73.392445,-53.530694],[-73.43456,-53.39422],[-73.803334,-53.434503]]],[[[-73.789662,-44.38242],[-73.691518,-44.437921],[-73.651357,-44.358819],[-73.789662,-44.38242]]],[[[-73.759674,-44.262872],[-73.722035,-44.30283],[-73.666168,-44.265069],[-73.759674,-44.262872]]],[[[-73.755523,-44.779555],[-73.652415,-44.839125],[-73.604726,-44.744887],[-73.755523,-44.779555]]],[[[-73.755035,-42.59881],[-73.61677,-42.638767],[-73.599273,-42.593927],[-73.755035,-42.59881]]],[[[-73.754994,-43.985284],[-73.633412,-44.123793],[-73.650014,-43.991388],[-73.754994,-43.985284]]],[[[-73.72669,-43.191686],[-73.646979,-43.229241],[-73.656422,-43.196],[-73.72669,-43.191686]]],[[[-73.651601,-42.386489],[-73.419423,-42.564223],[-73.543202,-42.379164],[-73.651601,-42.386489]]],[[[-73.619008,-53.636895],[-73.484853,-53.70086],[-73.591664,-53.756036],[-73.262074,-53.70143],[-73.337758,-53.955255],[-73.098256,-54.037856],[-73.05602,-53.812758],[-72.645131,-53.859633],[-73.026845,-54.074884],[-72.843088,-54.133559],[-72.343414,-54.044041],[-72.391835,-53.845392],[-72.138661,-53.797621],[-72.453277,-53.742364],[-72.464182,-53.575128],[-72.673004,-53.536879],[-72.678578,-53.673272],[-72.858469,-53.452732],[-72.884145,-53.681329],[-73.037709,-53.385512],[-73.17516,-53.420831],[-73.077138,-53.530694],[-73.420318,-53.478936],[-72.95287,-53.664483],[-73.619008,-53.636895]]],[[[-73.61148,-42.936212],[-73.365102,-42.990818],[-73.552805,-42.918634],[-73.61148,-42.936212]]],[[[-73.551685,-37.027621],[-73.446494,-37.05917],[-73.523096,-36.975265],[-73.551685,-37.027621]]],[[[-73.474355,-54.071954],[-73.159657,-54.106134],[-73.274973,-54.028253],[-73.474355,-54.071954]]],[[[-73.468129,-44.642511],[-73.207428,-44.792657],[-73.407582,-44.822442],[-73.256988,-44.940037],[-72.837636,-44.710138],[-72.980946,-44.601495],[-72.721181,-44.528009],[-72.980946,-44.51214],[-73.002024,-44.361261],[-73.036204,-44.484796],[-73.246246,-44.437188],[-73.131581,-44.54518],[-73.2412,-44.639337],[-73.468129,-44.642511]]],[[[-73.39981,-52.728204],[-73.369211,-52.728611],[-73.330963,-52.694024],[-73.39981,-52.728204]]],[[[-73.356927,-42.629037],[-73.238951,-42.650826],[-73.241038,-42.631371],[-73.356927,-42.629037]]],[[[-73.302724,-44.349705],[-73.176747,-44.374933],[-73.249013,-44.306736],[-73.302724,-44.349705]]],[[[-73.286488,-43.950128],[-73.173329,-44.025567],[-73.144276,-43.892511],[-73.286488,-43.950128]]],[[[-73.193918,-42.249119],[-73.141591,-42.313735],[-73.069203,-42.277927],[-73.193918,-42.249119]]],[[[-73.098314,-54.485808],[-72.989115,-54.495697],[-72.953784,-54.456858],[-73.098314,-54.485808]]],[[[-73.088124,-41.836033],[-73.003,-41.844334],[-73.066884,-41.736993],[-73.088124,-41.836033]]],[[[-73.033616,-42.713886],[-72.918815,-42.786532],[-72.930444,-42.72334],[-73.033616,-42.713886]]],[[[-72.617787,-42.103611],[-72.508046,-42.13893],[-72.529856,-42.053643],[-72.617787,-42.103611]]],[[[-72.541737,-54.343032],[-72.470693,-54.427667],[-72.296946,-54.345798],[-72.541737,-54.343032]]],[[[-72.51537,-54.202325],[-72.206288,-54.140313],[-72.314565,-54.063084],[-72.51537,-54.202325]]],[[[-72.259104,-53.929864],[-71.905263,-54.229099],[-71.970611,-54.325291],[-71.744618,-54.246352],[-71.947174,-54.006931],[-71.766103,-54.163995],[-71.652008,-54.089044],[-71.727284,-53.898614],[-72.259104,-53.929864]]],[[[-72.104319,-54.644789],[-71.926381,-54.736749],[-72.019439,-54.632989],[-72.104319,-54.644789]]],[[[-72.007721,-54.505304],[-71.944325,-54.654555],[-71.487864,-54.687433],[-71.233632,-54.531345],[-71.289662,-54.676446],[-70.951568,-54.616388],[-71.027577,-54.777032],[-70.45287,-54.633722],[-70.758778,-54.84059],[-69.627065,-54.692071],[-69.648305,-54.822524],[-69.130116,-54.942153],[-68.737864,-54.896091],[-68.928578,-54.778497],[-68.568227,-54.878351],[-68.700063,-54.767836],[-66.540508,-55.051046],[-65.358957,-54.92669],[-65.141916,-54.646905],[-65.854807,-54.644708],[-67.29776,-54.053806],[-67.983632,-53.601332],[-68.111402,-53.343802],[-68.550751,-53.238537],[-68.349569,-53.016162],[-68.225819,-53.102472],[-68.594879,-52.654229],[-68.779026,-52.548254],[-69.140248,-52.68377],[-69.417565,-52.451472],[-69.9114,-52.847904],[-70.416127,-52.758071],[-70.089175,-52.911063],[-70.418993,-53.011716],[-70.473541,-53.309259],[-70.202707,-53.468683],[-69.352651,-53.355727],[-69.360842,-53.521675],[-70.178212,-53.833429],[-70.014027,-54.113539],[-68.994944,-54.468438],[-69.377187,-54.681573],[-69.23998,-54.441339],[-69.85912,-54.280369],[-69.77538,-54.554864],[-70.034495,-54.256931],[-70.199045,-54.320571],[-70.136871,-54.427667],[-70.932688,-54.113539],[-70.130727,-54.545017],[-70.585194,-54.390558],[-70.764394,-54.599542],[-70.610463,-54.3388],[-70.800649,-54.315851],[-71.09024,-54.510837],[-71.364613,-54.372979],[-71.614125,-54.410903],[-71.563222,-54.510837],[-71.850657,-54.414646],[-71.671864,-54.57171],[-72.007721,-54.505304]]],[[[-71.699818,-54.166192],[-71.542144,-54.269952],[-71.416615,-54.11004],[-71.148305,-54.379815],[-70.990142,-54.265802],[-71.028879,-54.085626],[-71.221059,-54.184666],[-71.463287,-53.941583],[-71.63093,-53.955255],[-71.699818,-54.166192]]],[[[-71.459584,-54.87949],[-70.911529,-54.921075],[-71.165395,-54.832289],[-71.459584,-54.87949]]],[[[-71.012847,-54.96502],[-70.590077,-55.05047],[-70.548085,-55.213556],[-70.267242,-55.112888],[-70.729848,-55.01336],[-70.315663,-54.900567],[-71.012847,-54.96502]]],[[[-70.900543,-53.873712],[-70.822743,-54.113539],[-70.593414,-54.2138],[-70.669962,-53.950342],[-70.336277,-54.007403],[-70.48644,-53.561293],[-70.71288,-53.70143],[-70.606114,-53.865125],[-70.900543,-53.873712]]],[[[-70.78974,-52.900541],[-70.725155,-52.913608],[-70.619252,-52.843384],[-70.78974,-52.900541]]],[[[-70.74767,-54.873305],[-70.396881,-54.869073],[-70.607086,-54.832289],[-70.74767,-54.873305]]],[[[-70.521108,-54.174412],[-70.339752,-54.265802],[-70.218658,-54.234633],[-70.521108,-54.174412]]],[[[-70.513691,-54.091286],[-70.349656,-54.155874],[-70.291237,-54.093304],[-70.513691,-54.091286]]],[[[-70.110219,-55.29225],[-70.006459,-55.374444],[-69.945139,-55.298517],[-70.110219,-55.29225]]],[[[-70.031484,-55.153253],[-69.500071,-55.174981],[-69.788075,-55.305922],[-69.16161,-55.514337],[-69.459096,-55.305922],[-69.287831,-55.168145],[-69.438629,-55.161879],[-68.801137,-55.188653],[-68.971303,-55.37713],[-68.760243,-55.332615],[-68.965688,-55.40781],[-68.865346,-55.505304],[-68.353627,-55.475274],[-68.089223,-55.715265],[-67.965159,-55.593357],[-68.146474,-55.404392],[-68.745961,-55.271173],[-68.274241,-55.230157],[-69.061879,-55.04461],[-68.616078,-55.152276],[-68.334828,-55.062433],[-68.441151,-54.939711],[-70.031484,-55.153253]]],[[[-69.950347,-54.952895],[-69.164296,-54.955824],[-69.728342,-54.864516],[-69.950347,-54.952895]]],[[[-69.801747,-55.40781],[-69.637318,-55.38836],[-69.801747,-55.332615],[-69.801747,-55.40781]]],[[[-68.360504,-54.930922],[-68.18635,-54.978204],[-68.110504,-55.230239],[-67.502919,-55.172133],[-67.270619,-55.306899],[-67.053334,-55.133966],[-67.301829,-54.928888],[-68.360504,-54.930922]]],[[[-67.913945,-55.836566],[-67.621843,-55.918504],[-67.471603,-55.817704],[-67.913945,-55.836566]]],[[[-67.738596,-55.616876],[-67.59557,-55.533136],[-67.691396,-55.497166],[-67.738596,-55.616876]]],[[[-67.688832,12.068996],[-67.687327,12.065579],[-67.687082,12.067532],[-67.688832,12.068996]]],[[[-67.684438,12.063463],[-67.68102,12.061835],[-67.681386,12.063707],[-67.684438,12.063463]]],[[[-67.681549,12.025784],[-67.680409,12.025051],[-67.679067,12.028144],[-67.681549,12.025784]]],[[[-67.677602,12.027818],[-67.676666,12.026923],[-67.677235,12.030015],[-67.677602,12.027818]]],[[[-67.677235,12.050238],[-67.676096,12.04442],[-67.674672,12.048407],[-67.677235,12.050238]]],[[[-67.674875,11.989651],[-67.665883,11.982001],[-67.637603,11.980048],[-67.674875,11.989651]]],[[[-67.581532,-55.716241],[-67.252553,-55.76393],[-67.35912,-55.573907],[-67.581532,-55.716241]]],[[[-67.417063,-55.833591],[-67.204172,-55.880629],[-67.281972,-55.820977],[-67.417063,-55.833591]]],[[[-67.240102,-55.789727],[-67.156972,-55.778253],[-67.187815,-55.756931],[-67.240102,-55.789727]]],[[[-67.171864,-55.862074],[-67.072377,-55.902927],[-67.080637,-55.812433],[-67.171864,-55.862074]]],[[[-67.074452,-55.278009],[-66.938059,-55.334568],[-66.829579,-55.282485],[-67.074452,-55.278009]]],[[[-67.070953,-55.016778],[-66.806874,-55.112888],[-66.869008,-55.024102],[-67.070953,-55.016778]]],[[[-66.854604,11.75137],[-66.827789,11.746243],[-66.728017,11.78205],[-66.854604,11.75137]]],[[[-66.81786,11.87108],[-66.753814,11.862372],[-66.711781,11.867906],[-66.81786,11.87108]]],[[[-66.704498,11.783108],[-66.587799,11.783108],[-66.615102,11.824042],[-66.704498,11.783108]]],[[[-66.645253,-55.250746],[-66.420806,-55.20086],[-66.53482,-55.162774],[-66.645253,-55.250746]]],[[[-66.194325,11.817694],[-66.143137,11.781806],[-66.101186,11.799791],[-66.194325,11.817694]]],[[[-65.411773,10.92475],[-65.201975,10.918158],[-65.329905,10.977607],[-65.411773,10.92475]]],[[[-64.758656,-54.832289],[-63.812123,-54.729913],[-64.542348,-54.71559],[-64.758656,-54.832289]]],[[[-64.648793,11.830268],[-64.552154,11.839911],[-64.607167,11.899115],[-64.648793,11.830268]]],[[[-64.408559,10.967475],[-64.059722,10.857611],[-63.787668,10.973782],[-63.880971,11.179145],[-64.031972,10.995998],[-64.220082,11.091539],[-64.408559,10.967475]]],[[[-64.220937,10.806464],[-64.155873,10.811957],[-64.20344,10.827297],[-64.220937,10.806464]]],[[[-64.00536,10.788398],[-63.935536,10.73371],[-63.894643,10.754584],[-64.00536,10.788398]]],[[[-63.643625,15.700588],[-63.633941,15.696194],[-63.639638,15.702948],[-63.643625,15.700588]]],[[[-62.79308,10.447943],[-62.65982,10.310004],[-62.776967,10.492621],[-62.79308,10.447943]]],[[[-62.436187,10.046576],[-62.420522,9.982652],[-62.396067,9.978095],[-62.436187,10.046576]]],[[[-62.350901,9.897366],[-62.325754,9.844184],[-62.322743,9.910061],[-62.350901,9.897366]]],[[[-62.298573,9.996649],[-62.245188,10.003607],[-62.240834,10.0515],[-62.298573,9.996649]]],[[[-62.237326,-40.509949],[-62.028517,-40.454882],[-62.172836,-40.375048],[-62.237326,-40.509949]]],[[[-62.13318,-40.181094],[-62.021165,-40.343553],[-62.01466,-40.175163],[-62.13318,-40.181094]]],[[[-62.130767,-39.020603],[-61.967275,-39.04697],[-62.040191,-39.005466],[-62.130767,-39.020603]]],[[[-62.098012,-39.087823],[-61.859364,-39.225193],[-61.903391,-39.132094],[-62.098012,-39.087823]]],[[[-61.540116,8.565411],[-61.263688,8.456088],[-61.314603,8.571314],[-61.540116,8.565411]]],[[[-61.270375,8.514553],[-61.041575,8.518541],[-60.996002,8.602688],[-61.270375,8.514553]]],[[[-61.1768,8.603848],[-60.846576,8.637715],[-60.732365,8.89215],[-61.095343,8.779461],[-61.1768,8.603848]]],[[[-61.096588,8.90058],[-60.85204,9.096137],[-61.069325,8.978827],[-61.096588,8.90058]]],[[[-61.091624,8.822414],[-60.838368,9.000556],[-60.920277,9.028469],[-61.091624,8.822414]]],[[[-60.961293,9.069403],[-60.853342,9.194037],[-60.936757,9.164618],[-60.961293,9.069403]]],[[[-60.845204,9.116604],[-60.728505,9.192939],[-60.757924,9.230414],[-60.845204,9.116604]]],[[[-60.809814,8.642141],[-60.604845,8.67115],[-60.676056,8.762917],[-60.809814,8.642141]]],[[[-58.46349,6.900295],[-58.333608,6.965277],[-58.418935,6.972113],[-58.46349,6.900295]]],[[[-51.954091,-1.422459],[-51.785634,-1.449965],[-51.275624,-1.02516],[-51.237538,-0.538263],[-51.559804,-0.664972],[-51.954091,-1.422459]]],[[[-51.4051,-0.459649],[-51.166737,-0.305597],[-51.120839,-0.140313],[-51.4051,-0.459649]]],[[[-51.111684,-0.782322],[-50.822255,-0.699884],[-50.836741,-0.561782],[-51.111684,-0.782322]]],[[[-51.038686,-0.200291],[-50.923411,-0.330499],[-50.627431,-0.085707],[-50.817535,0.034742],[-51.038686,-0.200291]]],[[[-50.813059,-1.336358],[-50.603871,-1.772149],[-50.405181,-1.830987],[-50.258168,-1.484145],[-50.224517,-1.739028],[-50.028188,-1.65545],[-49.809071,-1.819268],[-49.744211,-1.580336],[-49.688344,-1.769301],[-49.551747,-1.72088],[-49.531321,-1.497735],[-49.372439,-1.646635],[-49.387318,-1.484145],[-49.168202,-1.586602],[-49.197743,-1.38836],[-48.91808,-1.504571],[-48.990061,-1.292413],[-48.832997,-1.415785],[-48.921132,-1.141534],[-48.628774,-1.063165],[-48.368886,-0.297947],[-48.893612,-0.152886],[-50.574452,-0.188084],[-50.723622,-0.479913],[-50.548451,-0.67783],[-50.737294,-0.551853],[-50.798004,-0.984308],[-50.476633,-1.039158],[-50.559722,-1.183201],[-50.792551,-1.086196],[-50.813059,-1.336358]]],[[[-50.648549,0.150458],[-50.447499,-0.015151],[-50.469641,0.145177],[-50.648549,0.150458]]],[[[-50.553523,2.156309],[-50.415158,2.126931],[-50.463348,2.186938],[-50.553523,2.156309]]],[[[-50.523813,2.001482],[-50.419119,1.862978],[-50.312496,1.947065],[-50.399578,2.115108],[-50.523813,2.001482]]],[[[-50.518056,0.214911],[-50.323285,0.28696],[-50.366689,0.61994],[-50.518056,0.214911]]],[[[-50.383656,0.129869],[-50.004506,-0.052789],[-49.530356,0.35378],[-50.383656,0.129869]]],[[[-50.31725,0.457994],[-50.249595,0.361016],[-50.038442,0.60635],[-50.31725,0.457994]]],[[[-50.283364,0.769186],[-50.103383,0.755683],[-50.015723,0.892493],[-50.283364,0.769186]]],[[[-50.220461,0.246212],[-50.107334,0.292931],[-50.093321,0.339013],[-50.220461,0.246212]]],[[[-50.100317,0.959063],[-50.00829,0.940985],[-49.916208,1.056563],[-50.100317,0.959063]]],[[[-49.832346,-0.103123],[-49.347524,-0.009698],[-49.496571,0.085598],[-49.832346,-0.103123]]],[[[-49.529545,-1.717057],[-49.422844,-1.674181],[-49.501638,-1.658162],[-49.529545,-1.717057]]],[[[-49.452992,-1.850193],[-49.367421,-1.895115],[-49.277008,-1.767022],[-49.452992,-1.850193]]],[[[-48.703277,-26.311944],[-48.578521,-26.420994],[-48.493398,-26.218927],[-48.703277,-26.311944]]],[[[-48.565094,-27.813653],[-48.426584,-27.38893],[-48.537506,-27.47617],[-48.565094,-27.813653]]],[[[-48.465443,-1.157647],[-48.297353,-1.128513],[-48.405019,-1.06878],[-48.465443,-1.157647]]],[[[-48.339525,-25.425535],[-48.255883,-25.465745],[-48.255379,-25.348212],[-48.339525,-25.425535]]],[[[-48.319081,-0.973728],[-48.207387,-1.017836],[-48.16275,-0.850193],[-48.319081,-0.973728]]],[[[-47.982655,-0.676039],[-47.962148,-0.730645],[-47.887074,-0.669122],[-47.982655,-0.676039]]],[[[-47.900136,-25.036798],[-47.448313,-24.6867],[-47.831858,-24.913263],[-47.900136,-25.036798]]],[[[-47.761379,-0.575771],[-47.646881,-0.702732],[-47.649159,-0.591567],[-47.761379,-0.575771]]],[[[-46.4204,-23.947442],[-46.29186,-23.990899],[-46.319488,-23.927667],[-46.4204,-23.947442]]],[[[-45.452952,-23.891371],[-45.241689,-23.96795],[-45.228098,-23.772393],[-45.452952,-23.891371]]],[[[-45.026967,-1.360528],[-44.878651,-1.285089],[-44.974355,-1.260349],[-45.026967,-1.360528]]],[[[-44.604237,-3.035903],[-44.497304,-2.949314],[-44.480784,-2.70436],[-44.604237,-3.035903]]],[[[-44.367096,-23.165216],[-44.082265,-23.169529],[-44.235097,-23.06878],[-44.367096,-23.165216]]],[[[-43.848708,-2.42398],[-43.838326,-2.507358],[-43.770658,-2.496004],[-43.848708,-2.42398]]],[[[-43.743263,-2.402861],[-43.634805,-2.399895],[-43.607021,-2.256329],[-43.743263,-2.402861]]],[[[-43.611692,-2.385001],[-43.573656,-2.423468],[-43.542039,-2.371153],[-43.611692,-2.385001]]],[[[-42.258436,-2.69621],[-42.249767,-2.736441],[-42.105776,-2.772749],[-42.258436,-2.69621]]],[[[-42.186025,-2.676446],[-42.027821,-2.744806],[-42.073476,-2.684503],[-42.186025,-2.676446]]],[[[-39.045888,-13.458185],[-38.902013,-13.671812],[-38.906239,-13.388849],[-39.045888,-13.458185]]],[[[-38.793365,-13.075128],[-38.587473,-12.986912],[-38.622304,-12.905369],[-38.793365,-13.075128]]],[[[-34.884259,-7.788237],[-34.838015,-7.810799],[-34.836052,-7.696933],[-34.884259,-7.788237]]],[[[-32.462799,-3.878351],[-32.386586,-3.841241],[-32.43692,-3.849867],[-32.462799,-3.878351]]],[[[-29.426381,0.858547],[-29.369374,0.833564],[-29.345326,0.866645],[-29.426381,0.858547]]],[[[-29.348256,-20.561293],[-29.338246,-20.584161],[-29.316884,-20.56878],[-29.348256,-20.561293]]],[[[-28.88329,-20.518731],[-28.877065,-20.511651],[-28.880483,-20.510837],[-28.88329,-20.518731]]]]}}]}